{
    "links": {
        "self": "http://www.neowsapp.com/rest/v1/neo/3748466?api_key=iIulBulltgU6a56xZRHN4H3l9WmuAYTsLGpBGhQ2"
    },
    "id": "3748466",
    "neo_reference_id": "3748466",
    "name": "(2016 FO12)",
    "designation": "2016 FO12",
    "nasa_jpl_url": "http://ssd.jpl.nasa.gov/sbdb.cgi?sstr=3748466",
    "absolute_magnitude_h": 22.6,
    "estimated_diameter": {
        "kilometers": {
            "estimated_diameter_min": 0.0802703167,
            "estimated_diameter_max": 0.1794898848
        },
        "meters": {
            "estimated_diameter_min": 80.2703167283,
            "estimated_diameter_max": 179.4898847799
        },
        "miles": {
            "estimated_diameter_min": 0.049877647,
            "estimated_diameter_max": 0.1115298092
        },
        "feet": {
            "estimated_diameter_min": 263.3540659348,
            "estimated_diameter_max": 588.8775935812
        }
    },
    "is_potentially_hazardous_asteroid": false,
    "close_approach_data": [
        {
            "close_approach_date": "2016-03-21",
            "close_approach_date_full": "2016-Mar-21 16:51",
            "epoch_date_close_approach": 1458579060000,
            "relative_velocity": {
                "kilometers_per_second": "16.5369778018",
                "kilometers_per_hour": "59533.1200863076",
                "miles_per_hour": "36991.5656447393"
            },
            "miss_distance": {
                "astronomical": "0.2274870044",
                "lunar": "88.4924447116",
                "kilometers": "34031571.310920628",
                "miles": "21146237.8485275464"
            },
            "orbiting_body": "Earth"
        }
    ],
    "orbital_data": {
        "orbit_id": "11",
        "orbit_determination_date": "2017-04-06 08:27:12",
        "first_observation_date": "2016-03-25",
        "last_observation_date": "2016-04-13",
        "data_arc_in_days": 19,
        "observations_used": 46,
        "orbit_uncertainty": "8",
        "minimum_orbit_intersection": ".00387117",
        "jupiter_tisserand_invariant": "3.152",
        "epoch_osculation": "2457482.5",
        "eccentricity": ".6225444475019921",
        "semi_major_axis": "2.518670755969206",
        "inclination": "4.237331460805853",
        "ascending_node_longitude": "287.8930287360756",
        "orbital_period": "1460.008977845327",
        "perihelion_distance": ".9506862617549316",
        "perihelion_argument": "200.8160939162356",
        "aphelion_distance": "4.08665525018348",
        "perihelion_time": "2457437.032659325703",
        "mean_anomaly": "11.21105615864299",
        "mean_motion": ".2465738262317304",
        "equinox": "J2000",
        "orbit_class": {
            "orbit_class_type": "APO",
            "orbit_class_description": "Near-Earth asteroid orbits which cross the Earth’s orbit similar to that of 1862 Apollo",
            "orbit_class_range": "a (semi-major axis) > 1.0 AU; q (perihelion) < 1.017 AU"
        }
    },
    "is_sentry_object": false
}